[{"OBJECT_NAME":"TIANPING-3A 02","OBJECT_ID":"2025-068A","EPOCH":"2026-03-09T20:54:34.712640","MEAN_MOTION":14.85842181,"ECCENTRICITY":0.02320093,"INCLINATION":43.0011,"RA_OF_ASC_NODE":213.5906,"ARG_OF_PERICENTER":358.6421,"MEAN_ANOMALY":1.3764,"EPHEMERIS_TYPE":0,"CLASSIFICATION_TYPE":"U","NORAD_CAT_ID":63432,"ELEMENT_SET_NO":999,"REV_AT_EPOCH":5060,"BSTAR":0.00038259976,"MEAN_MOTION_DOT":5.293e-5,"MEAN_MOTION_DDOT":0},{"OBJECT_NAME":"STARLINK-33974","OBJECT_ID":"2025-099C","EPOCH":"2026-03-09T07:25:40.708416","MEAN_MOTION":15.27587074,"ECCENTRICITY":0.00018341,"INCLINATION":42.9999,"RA_OF_ASC_NODE":178.7605,"ARG_OF_PERICENTER":275.0177,"MEAN_ANOMALY":85.0465,"EPHEMERIS_TYPE":0,"CLASSIFICATION_TYPE":"U","NORAD_CAT_ID":63954,"ELEMENT_SET_NO":999,"REV_AT_EPOCH":4727,"BSTAR":0.0014137065,"MEAN_MOTION_DOT":0.00038854,"MEAN_MOTION_DDOT":0}]
